NORAD_CAT_ID,OBJECT_NAME,OBJECT_TYPE,EPOCH,MEAN_MOTION,ECCENTRICITY,INCLINATION,RA_OF_ASC_NODE,ARG_OF_PERICENTER,MEAN_ANOMALY,BSTAR,MEAN_MOTION_DOT,MEAN_MOTION_DDOT,TLE_LINE0,TLE_LINE1,TLE_LINE2,SEMIMAJOR_AXIS,PERIOD,APOGEE,PERIGEE,DECAYED
54768.0,STARLINK-5444,PAYLOAD,2023-02-21 08:00:01,15.3822817,0.0001334,53.2144,344.451,79.1647,15.2138,-0.026306,-0.00922128,0.0,0 STARLINK-5444,1 54768U 22175L   23052.33334491 -.00922128  00000-0 -26306-1 0  9993,2 54768  53.2144 344.4510 0001334  79.1647  15.2138 15.38228170 10016,6829.486,93.614,452.262,450.44,0.0
54768.0,STARLINK-5444,PAYLOAD,2023-02-21 14:00:01,15.37712881,0.0001215,53.2146,343.276,93.0726,306.2681,-0.025674,-0.00887809,0.0,0 STARLINK-5444,1 54768U 22175L   23052.58334491 -.00887809  00000-0 -25674-1 0  9993,2 54768  53.2146 343.2760 0001215  93.0726 306.2681 15.37712881  1307,6831.011,93.646,453.706,452.046,0.0
54768.0,STARLINK-5444,PAYLOAD,2023-02-22 00:00:00,15.3692129,0.0001412,53.2144,341.3232,91.8834,94.7186,-0.027696,-0.00929619,0.0,0 STARLINK-5444,1 54768U 22175L   23053.00001157 -.00929619  00000-0 -27696-1 0  9993,2 54768  53.2144 341.3232 0001412  91.8834  94.7186 15.36921290  1307,6833.357,93.694,456.187,454.257,0.0
54768.0,STARLINK-5444,PAYLOAD,2023-02-22 06:00:00,15.36408792,0.0001368,53.2141,340.1529,84.2547,46.1243,-0.026317,-0.00873455,0.0,0 STARLINK-5444,1 54768U 22175L   23053.25001157 -.00873455  00000-0 -26317-1 0  9995,2 54768  53.2141 340.1529 0001368  84.2547  46.1243 15.36408792 10152,6834.876,93.725,457.676,455.806,0.0
54768.0,STARLINK-5444,PAYLOAD,2023-02-22 14:00:01,15.35755262,0.0001323,53.214,338.5908,97.4749,77.2579,-0.027077,-0.00879375,0.0,0 STARLINK-5444,1 54768U 22175L   23053.58334491 -.00879375  00000-0 -27077-1 0  9992,2 54768  53.2140 338.5908 0001323  97.4749  77.2579 15.35755262  1304,6836.815,93.765,459.585,457.776,0.0
54768.0,STARLINK-5444,PAYLOAD,2023-02-22 22:00:00,15.35144802,0.0001404,53.214,337.0328,100.1431,118.1406,-0.029906,-0.00946223,0.0,0 STARLINK-5444,1 54768U 22175L   23053.91667824 -.00946223  00000-0 -29906-1 0  9998,2 54768  53.2140 337.0328 0001404 100.1431 118.1406 15.35144802 10265,6838.627,93.802,461.453,459.532,0.0
54768.0,STARLINK-5444,PAYLOAD,2023-02-23 14:00:01,15.33798456,0.0001269,53.2138,333.9193,106.6137,196.4705,-0.02861,-0.00873162,0.0,0 STARLINK-5444,1 54768U 22175L   23054.58334491 -.00873162  00000-0 -28610-1 0  9995,2 54768  53.2138 333.9193 0001269 106.6137 196.4705 15.33798456  1304,6842.629,93.885,465.362,463.625,0.0
54768.0,STARLINK-5444,PAYLOAD,2023-02-23 16:00:00,15.33641737,0.0001177,53.2137,333.5303,103.3848,300.0732,-0.028901,-0.00877285,0.0,0 STARLINK-5444,1 54768U 22175L   23054.66667824 -.00877285  00000-0 -28901-1 0  9996,2 54768  53.2137 333.5303 0001177 103.3848 300.0732 15.33641737 10372,6843.095,93.894,465.765,464.154,0.0
54768.0,STARLINK-5444,PAYLOAD,2023-02-23 22:00:00,15.33192208,0.0001231,53.2139,332.3659,103.5887,240.6987,-0.031926,-0.00948755,0.0,0 STARLINK-5444,1 54768U 22175L   23054.91667824 -.00948755  00000-0 -31926-1 0  9996,2 54768  53.2139 332.3659 0001231 103.5887 240.6987 15.33192208  1309,6844.432,93.922,467.14,465.455,0.0
54768.0,STARLINK-5444,PAYLOAD,2023-02-24 08:00:01,15.32387673,0.0001302,53.2136,330.426,89.0578,35.6464,-0.03299,-0.00967527,0.0,0 STARLINK-5444,1 54768U 22175L   23055.33334491 -.00967527  00000-0 -32990-1 0  9994,2 54768  53.2136 330.4260 0001302  89.0578  35.6464 15.32387673 10478,6846.828,93.971,469.584,467.801,0.0
54768.0,STARLINK-5444,PAYLOAD,2023-02-24 14:00:01,15.31843098,0.0001173,53.2139,329.2614,101.7125,322.6814,-0.030229,-0.00867628,0.0,0 STARLINK-5444,1 54768U 22175L   23055.58334491 -.00867628  00000-0 -30229-1 0  9995,2 54768  53.2139 329.2614 0001173 101.7125 322.6814 15.31843098  1303,6848.45,94.004,471.119,469.512,0.0
54768.0,STARLINK-5444,PAYLOAD,2023-02-24 22:00:00,15.31237471,0.0001294,53.214,327.7127,96.5695,6.6822,-0.033961,-0.0096112,0.0,0 STARLINK-5444,1 54768U 22175L   23055.91667824 -.00961120  00000-0 -33961-1 0  9999,2 54768  53.2140 327.7127 0001294  96.5695   6.6822 15.31237471  1304,6850.256,94.042,473.008,471.235,0.0
54768.0,STARLINK-5444,PAYLOAD,2023-02-25 02:00:01,15.30872175,0.0001273,53.214,326.9394,97.2972,205.1067,-0.031535,-0.00877158,0.0,0 STARLINK-5444,1 54768U 22175L   23056.08334491 -.00877158  00000-0 -31535-1 0  9991,2 54768  53.2140 326.9394 0001273  97.2972 205.1067 15.30872175 10597,6851.346,94.064,474.083,472.339,0.0
54768.0,STARLINK-5444,PAYLOAD,2023-02-25 14:00:01,15.29893171,0.0001272,53.2141,324.6173,100.2407,78.4199,-0.032235,-0.00870253,0.0,0 STARLINK-5444,1 54768U 22175L   23056.58334491 -.00870253  00000-0 -32235-1 0  9993,2 54768  53.2141 324.6173 0001272 100.2407  78.4199 15.29893171 10667,6854.268,94.124,477.005,475.261,0.0
54768.0,STARLINK-5444,PAYLOAD,2023-02-25 22:00:00,15.29276359,0.0001317,53.2144,323.0734,92.3814,122.7952,-0.035591,-0.00948553,0.0,0 STARLINK-5444,1 54768U 22175L   23056.91667824 -.00948553  00000-0 -35591-1 0  9996,2 54768  53.2144 323.0734 0001317  92.3814 122.7952 15.29276359  1303,6856.111,94.162,478.879,477.073,0.0
54768.0,STARLINK-5444,PAYLOAD,2023-02-26 06:00:00,15.28627412,0.0001224,53.2142,321.5308,82.5757,168.3368,-0.03576,-0.00935161,0.0,0 STARLINK-5444,1 54768U 22175L   23057.25001157 -.00935161  00000-0 -35760-1 0  9994,2 54768  53.2142 321.5308 0001224  82.5757 168.3368 15.28627412 10772,6858.052,94.202,480.756,479.077,0.0
54768.0,STARLINK-5444,PAYLOAD,2023-02-26 14:00:01,15.27939405,0.0001172,53.2146,319.987,94.8047,191.0842,-0.034121,-0.0086742,0.0,0 STARLINK-5444,1 54768U 22175L   23057.58334491 -.00867420  00000-0 -34121-1 0  9992,2 54768  53.2146 319.9870 0001172  94.8047 191.0842 15.27939405  1307,6860.11,94.245,482.779,481.171,0.0
54768.0,STARLINK-5444,PAYLOAD,2023-02-27 00:00:00,15.27130789,0.000142,53.2147,318.0634,80.3487,338.1393,-0.03588,-0.00888053,0.0,0 STARLINK-5444,1 54768U 22175L   23058.00001157 -.00888053  00000-0 -35880-1 0  9998,2 54768  53.2147 318.0634 0001420  80.3487 338.1393 15.27130789  1303,6862.532,94.294,485.371,483.422,0.0
54768.0,STARLINK-5444,PAYLOAD,2023-02-27 08:00:01,15.26533191,0.0001249,53.2149,316.5247,76.4808,15.1883,-0.039998,-0.00977533,0.0,0 STARLINK-5444,1 54768U 22175L   23058.33334491 -.00977533  00000-0 -39998-1 0  9990,2 54768  53.2149 316.5247 0001249  76.4808  15.1883 15.26533191 10938,6864.322,94.331,487.045,485.33,0.0
54768.0,STARLINK-5444,PAYLOAD,2023-02-27 14:00:01,15.25987554,0.0001085,53.2149,315.3704,87.7677,298.3084,-0.036267,-0.0086852,0.0,0 STARLINK-5444,1 54768U 22175L   23058.58334491 -.00868520  00000-0 -36267-1 0  9998,2 54768  53.2149 315.3704 0001085  87.7677 298.3084 15.25987554  1304,6865.959,94.365,488.569,487.079,0.0
54768.0,STARLINK-5444,PAYLOAD,2023-02-27 22:00:01,15.25370374,0.0001152,53.2152,313.8362,79.098,338.8638,-0.040079,-0.00947887,0.0,0 STARLINK-5444,1 54768U 22175L   23058.91668981 -.00947887  00000-0 -40079-1 0  9999,2 54768  53.2152 313.8362 0001152  79.0980 338.8638 15.25370374 11028,6867.81,94.403,490.467,488.884,0.0
54768.0,STARLINK-5444,PAYLOAD,2023-02-28 14:00:01,15.24041517,0.0001201,53.2155,310.768,82.4702,36.7497,-0.038923,-0.00888833,0.0,0 STARLINK-5444,1 54768U 22175L   23059.58334491 -.00888833  00000-0 -38923-1 0  9999,2 54768  53.2155 310.7680 0001201  82.4702  36.7497 15.24041517  1305,6871.802,94.486,494.492,492.842,0.0
54768.0,STARLINK-5444,PAYLOAD,2023-02-28 18:00:00,15.23754218,0.0001185,53.2157,310.0027,91.6345,222.4128,-0.042165,-0.00949751,0.0,0 STARLINK-5444,1 54768U 22175L   23059.75001157 -.00949751  00000-0 -42165-1 0  9998,2 54768  53.2157 310.0027 0001185  91.6345 222.4128 15.23754218 11158,6872.666,94.503,495.345,493.716,0.0
54768.0,STARLINK-5444,PAYLOAD,2023-02-28 22:00:00,15.23408095,0.000134,53.2155,309.2384,78.4607,70.2417,-0.04188,-0.00934813,0.0,0 STARLINK-5444,1 54768U 22175L   23059.91667824 -.00934813  00000-0 -41880-1 0  9991,2 54768  53.2155 309.2384 0001340  78.4607  70.2417 15.23408095  1304,6873.707,94.525,496.493,494.651,0.0
54768.0,STARLINK-5444,PAYLOAD,2023-03-01 22:00:00,15.21456615,0.0001177,53.2159,304.6545,78.1835,154.2758,-0.044251,-0.00932276,0.0,0 STARLINK-5444,1 54768U 22175L   23060.91667824 -.00932276  00000-0 -44251-1 0  9999,2 54768  53.2159 304.6545 0001177  78.1835 154.2758 15.21456615 11338,6879.583,94.646,502.258,500.638,0.0
54768.0,STARLINK-5444,PAYLOAD,2023-03-02 00:00:00,15.21277471,0.0001131,53.216,304.2735,74.3173,254.8075,-0.042787,-0.00899175,0.0,0 STARLINK-5444,1 54768U 22175L   23061.00001157 -.00899175  00000-0 -42787-1 0  9993,2 54768  53.2160 304.2735 0001131  74.3173 254.8075 15.21277471  1306,6880.123,94.657,502.766,501.21,0.0
54768.0,STARLINK-5444,PAYLOAD,2023-03-02 20:00:01,15.19675532,0.0001377,53.2162,300.4643,80.3991,132.6551,-0.047572,-0.00949761,0.0,0 STARLINK-5444,1 54768U 22175L   23061.83334491 -.00949761  00000-0 -47572-1 0  9998,2 54768  53.2162 300.4643 0001377  80.3991 132.6551 15.19675532  1300,6884.957,94.757,507.771,505.874,0.0
54768.0,STARLINK-5444,PAYLOAD,2023-03-03 14:00:01,15.18186502,0.0001246,53.2162,297.0435,92.5853,263.8314,-0.046514,-0.00893477,0.0,0 STARLINK-5444,1 54768U 22175L   23062.58334491 -.00893477  00000-0 -46514-1 0  9998,2 54768  53.2162 297.0435 0001246  92.5853 263.8314 15.18186502 11585,6889.459,94.85,512.182,510.465,0.0
54768.0,STARLINK-5444,PAYLOAD,2023-03-03 22:00:00,15.17537677,0.0001258,53.2163,295.528,82.9874,295.8761,-0.048508,-0.00912945,0.0,0 STARLINK-5444,1 54768U 22175L   23062.91667824 -.00912945  00000-0 -48508-1 0  9991,2 54768  53.2163 295.5280 0001258  82.9874 295.8761 15.17537677  1308,6891.422,94.891,514.154,512.42,0.0
54768.0,STARLINK-5444,PAYLOAD,2023-03-04 10:00:01,15.16549595,0.0001293,53.2166,293.2535,89.9159,141.2139,-0.048436,-0.0088791,0.0,0 STARLINK-5444,1 54768U 22175L   23063.41668981 -.00887910  00000-0 -48436-1 0  9995,2 54768  53.2166 293.2535 0001293  89.9159 141.2139 15.16549595 11711,6894.415,94.952,517.172,515.389,0.0
